SL-16 R/B               
1 28353U 04021B   25198.47544225 -.00000200  00000+0 -79384-4 0  9994
2 28353  71.0020   6.0909 0004310   8.3821 351.7372 14.14556552 89572
CZ-4B R/B               
1 28415U 04035C   25198.47850512  .00005726  00000+0  23107-3 0  9994
2 28415  97.3781 230.9342 0037293  81.2483 279.2976 15.24538811144021
CZ-2C R/B               
1 28480U 04046B   25198.36860651  .00000114  00000+0  57288-4 0  9995
2 28480  98.1927 123.0583 0140593 130.4223 230.9323 14.26843690 74948
ARIANE 5 R/B            
1 28499U 04049H   25198.39171266  .00000531  00000+0  66008-4 0  9991
2 28499  98.2376 353.5458 0085967  34.2722 326.3998 14.84569229110874
CZ-2D R/B               
1 28738U 05024B   25198.47802985  .00015904  00000+0  34203-3 0  9990
2 28738  97.3680 202.9853 0007336 150.1306 210.0362 15.44709355103312
ALOS (DAICHI)           
1 28931U 06002A   25198.42218896  .00001114  00000+0  19923-3 0  9999
2 28931  98.0857 151.2533 0001193  53.5249 306.6066 14.68804147 38937
H-2A R/B                
1 28932U 06002B   25198.35145518  .00004978  00000+0  28885-3 0  9990
2 28932  98.2154 321.6047 0057267 320.3855  39.3195 15.11290110 58836
RESURS-DK 1             
1 29228U 06021A   25198.20087130  .00001923  00000+0  12090-3 0  9997
2 29228  69.9326 125.3588 0002651 159.5229 200.6043 15.11094165 51935
CZ-4B R/B               
1 29507U 06046C   25198.54155371  .00003238  00000+0  17928-3 0  9990
2 29507  97.5934 239.0771 0035326   3.3711 356.7751 15.14038423 24433
CZ-2C R/B               
1 31114U 07010B   25198.34201200  .00000085  00000+0  58192-4 0  9996
2 31114  98.3828 318.5999 0057914 258.3100 101.1575 14.20136851946313
COSMO-SKYMED 1          
1 31598U 07023A   25198.40613925  .00007460  00000+0  70178-3 0  9995
2 31598  97.8875  22.9608 0002049  89.4904 270.6550 14.94171668979735
GENESIS 2               
1 31789U 07028A   25198.56710005  .00148937  14744-4  56633-3 0  9996
2 31789  64.4710 280.4910 0026200 303.8936  55.9728 15.86917282998920
COSMOS 2428             
1 31792U 07029A   25198.48831635  .00000345  00000+0  21086-3 0  9994
2 31792  70.9428 337.0649 0005398 242.9730 117.0840 14.12885832930878
SL-16 R/B               
1 31793U 07029B   25198.78296257  .00000109  00000+0  81108-4 0  9993
2 31793  70.9774 306.1552 0002333 281.4129 243.3371 14.14792753932234
KORONAS-FOTON           
1 33504U 09003A   25198.37097434  .00006090  00000+0  16619-3 0  9999
2 33504  82.4333 159.2716 0009669 283.0330  76.9834 15.37170528909521
CZ-2C R/B               
1 37731U 11030B   25198.45979821  .00001091  00000+0  14669-3 0  9995
2 37731  97.8164 156.1530 0054460  37.1175  76.0727 14.80278019755288
H-2A R/B                
1 38341U 12025E   25198.39586407  .00002941  00000+0  28236-3 0  9995
2 38341  98.4376 142.5848 0046390   3.6790 356.4760 14.93165862713082
SHIJIAN-16 (SJ-16)      
1 39358U 13057A   25198.57916604  .00001088  00000+0  11140-3 0  9993
2 39358  74.9716 269.8390 0017887 321.6699  38.3216 14.91443985636442
SL-4 R/B                
1 39679U 14021B   25198.54014537  .00005724  00000+0  16107-3 0  9991
2 39679  51.6107  37.9501 0111354 330.5403  28.9332 15.32110010620148
ALOS-2                  
1 39766U 14029A   25198.55945976  .00001133  00000+0  15862-3 0  9994
2 39766  97.9229 295.5268 0001569  96.4805 263.6585 14.79476016602100
YAOGAN-29               
1 41038U 15069A   25198.76268902  .00000312  00000+0  45420-4 0  9996
2 41038  98.0336 221.3248 0002585  61.3455 298.8018 14.82667587521067
ASTRO-H (HITOMI)        
1 41337U 16012A   25197.89635971  .00001960  00000+0  11783-3 0  9998
2 41337  31.0002  75.9508 0009811 124.8290 235.3272 15.08173688516581
HXMT (HUIYAN)           
1 42758U 17034A   25198.52071859  .00003370  00000+0  19177-3 0  9993
2 42758  43.0138 240.6377 0034715 193.2170 166.7770 15.14102534446856
CZ-2C R/B               
1 43521U 18054D   25198.03697683  .00024298  00000+0  35516-3 0  9997
2 43521  35.1381  90.7375 0030821 176.4596 183.6353 15.54076978391791
SAOCOM 1A               
1 43641U 18076A   25198.55373302  .00000289  00000+0  42851-4 0  9995
2 43641  97.8891  25.0943 0001428  92.1787 267.9589 14.82163754366534
H-2A R/B                
1 43682U 18084L   25198.42154736  .00012852  00000+0  42123-3 0  9993
2 43682  98.8796   2.6343 0032496 113.6350 246.8303 15.31309276369666
SAOCOM 1B               
1 46265U 20059A   25198.51748238  .00000280  00000+0  41786-4 0  9991
2 46265  97.8894  24.1624 0001498  88.8044 271.3341 14.82152454263911
CSS (TIANHE)            
1 48274U 21035A   25198.44025366  .00009326  00000+0  13072-3 0  9996
2 48274  41.4640 197.1840 0008382 295.4487  64.5483 15.56784368240870
COSMOS 2550             
1 48865U 21056A   25198.57445182  .00004897  00000+0  15458-3 0  9999
2 48865  67.1431  32.1789 0008352 269.7986  90.2211 15.33832017227403
CZ-2C R/B               
1 52794U 22058K   25198.08264406  .00010499  00000+0  24772-3 0  9996
2 52794  50.1927  76.5260 0055355 299.1946  60.3489 15.40853039173663
GSLV R/B                
1 54149U 22138AN  25198.50872606  .00001424  00000+0  12743-3 0  9998
2 54149  87.3772 245.1065 0019697 287.4980  72.4097 14.94947069148771
XRISM                   
1 57800U 23137A   25198.55593644  .00004293  00000+0  26395-3 0  9997
2 57800  31.0034   0.6404 0007929 198.6468 161.3879 15.08334303102228
ACS3                    
1 59588U 24077B   25198.00994740  .00008051  00000+0  77404-2 0  9990
2 59588  97.4464 185.9858 0076034  58.0073 302.8445 13.78993806 61601
